[{"OBJECT_NAME":"STARLINK-3930","OBJECT_ID":"2022-051AM","EPOCH":"2026-03-09T10:15:48.915072","MEAN_MOTION":15.08836711,"ECCENTRICITY":0.00014574,"INCLINATION":53.2169,"RA_OF_ASC_NODE":120.2948,"ARG_OF_PERICENTER":89.3131,"MEAN_ANOMALY":270.8028,"EPHEMERIS_TYPE":0,"CLASSIFICATION_TYPE":"U","NORAD_CAT_ID":52568,"ELEMENT_SET_NO":999,"REV_AT_EPOCH":21154,"BSTAR":-3.986364e-5,"MEAN_MOTION_DOT":-9.22e-6,"MEAN_MOTION_DDOT":0},{"OBJECT_NAME":"QPS-SAR-7 (TSUKUYOMI-II)","OBJECT_ID":"2024-066F","EPOCH":"2026-03-09T22:44:25.024704","MEAN_MOTION":15.07520552,"ECCENTRICITY":3.06e-5,"INCLINATION":45.6053,"RA_OF_ASC_NODE":45.6252,"ARG_OF_PERICENTER":310.671,"MEAN_ANOMALY":49.4148,"EPHEMERIS_TYPE":0,"CLASSIFICATION_TYPE":"U","NORAD_CAT_ID":59447,"ELEMENT_SET_NO":999,"REV_AT_EPOCH":10524,"BSTAR":0.00063712098,"MEAN_MOTION_DOT":9.59e-5,"MEAN_MOTION_DDOT":0}]
